ONEWEB-0209             
1 48215U 21031F   25354.21339340  .00000094  00000+0  22033-3 0  9996
2 48215  87.8998 325.3817 0001585  85.9071 274.2240 13.14503889224864
ONEWEB-0198             
1 48216U 21031G   25353.96930569 -.00000187  00000+0 -53774-3 0  9999
2 48216  87.8995 325.4272 0001435  73.1984 286.9303 13.14503671224942
ONEWEB-0189             
1 48217U 21031H   25354.21020461  .00000093  00000+0  21597-3 0  9992
2 48217  87.8996 325.3535 0001498  74.2840 285.8455 13.14505356224710
ONEWEB-0196             
1 48218U 21031J   25354.18801908 -.00000168  00000+0 -48799-3 0  9990
2 48218  87.8992 325.3720 0001655  81.0649 279.0668 13.14503939224717
ONEWEB-0183             
1 48219U 21031K   25353.85817600 -.00000027  00000+0 -10780-3 0  9993
2 48219  87.8988 325.4412 0001775  90.6055 269.5278 13.14502777224767
ONEWEB-0185             
1 48220U 21031L   25353.96045554 -.00000190  00000+0 -54623-3 0  9993
2 48220  87.9005 325.3989 0001505  93.9068 266.2234 13.14504506224701
ONEWEB-0187             
1 48221U 21031M   25354.16884199  .00000026  00000+0  35634-4 0  9991
2 48221  87.8993 325.3969 0001529  84.8348 275.2956 13.14501296224749
ONEWEB-0192             
1 48222U 21031N   25354.21497979  .00000328  00000+0  85056-3 0  9991
2 48222  87.8990 325.3778 0001774  80.5604 279.5726 13.14504509224668
ONEWEB-0219             
1 48223U 21031P   25353.96600051 -.00000202  00000+0 -57804-3 0  9993
2 48223  87.8995 325.4061 0001561  88.5212 271.6096 13.14504052224832
ONEWEB-0202             
1 48224U 21031Q   25354.17532136 -.00000242  00000+0 -68762-3 0  9995
2 48224  87.8991 325.3759 0001504  59.5159 300.6119 13.14500186224841
ONEWEB-0204             
1 48225U 21031R   25354.20941832  .00000054  00000+0  11092-3 0  9990
2 48225  87.8997 325.3593 0001841  92.0222 268.1118 13.14505235224747
ONEWEB-0205             
1 48226U 21031S   25354.18483953 -.00000231  00000+0 -65759-3 0  9991
2 48226  87.8998 325.3575 0001602  85.7386 274.3927 13.14504566224758
ONEWEB-0206             
1 48227U 21031T   25354.15789977  .00000096  00000+0  22484-3 0  9999
2 48227  87.9008 325.3541 0002040  80.2062 279.9298 13.14502824224705
ONEWEB-0182             
1 48228U 21031U   25353.92477904  .00000155  00000+0  38286-3 0  9991
2 48228  87.8990 325.4276 0001805  91.6745 268.4592 13.14503691224885
ONEWEB-0186             
1 48229U 21031V   25353.63140375  .00000013  00000+0 -56567-6 0  9998
2 48229  87.9003 325.4640 0001659  83.7731 276.3588 13.14504019224799
ONEWEB-0181             
1 48230U 21031W   25353.91367307  .00000274  00000+0  70429-3 0  9995
2 48230  87.8988 325.4602 0001632  84.5586 275.5730 13.14504302224681
ONEWEB-0188             
1 48231U 21031X   25354.18007679 -.00000484  00000+0 -13409-2 0  9998
2 48231  87.8989 325.4045 0001804  85.5217 274.6119 13.14502530224623
