[{"OBJECT_NAME":"ONEWEB-0209","OBJECT_ID":"2021-031F","EPOCH":"2025-12-20T05:07:17.189760","MEAN_MOTION":13.14503889,"ECCENTRICITY":0.00015855,"INCLINATION":87.8998,"RA_OF_ASC_NODE":325.3817,"ARG_OF_PERICENTER":85.9071,"MEAN_ANOMALY":274.224,"EPHEMERIS_TYPE":0,"CLASSIFICATION_TYPE":"U","NORAD_CAT_ID":48215,"ELEMENT_SET_NO":999,"REV_AT_EPOCH":22486,"BSTAR":0.00022032688,"MEAN_MOTION_DOT":9.4e-7,"MEAN_MOTION_DDOT":0},{"OBJECT_NAME":"ONEWEB-0198","OBJECT_ID":"2021-031G","EPOCH":"2025-12-19T23:15:48.011616","MEAN_MOTION":13.14503671,"ECCENTRICITY":0.0001435,"INCLINATION":87.8995,"RA_OF_ASC_NODE":325.4272,"ARG_OF_PERICENTER":73.1984,"MEAN_ANOMALY":286.9303,"EPHEMERIS_TYPE":0,"CLASSIFICATION_TYPE":"U","NORAD_CAT_ID":48216,"ELEMENT_SET_NO":999,"REV_AT_EPOCH":22494,"BSTAR":-0.00053774,"MEAN_MOTION_DOT":-1.87e-6,"MEAN_MOTION_DDOT":0},{"OBJECT_NAME":"ONEWEB-0189","OBJECT_ID":"2021-031H","EPOCH":"2025-12-20T05:02:41.678304","MEAN_MOTION":13.14505356,"ECCENTRICITY":0.00014987,"INCLINATION":87.8996,"RA_OF_ASC_NODE":325.3535,"ARG_OF_PERICENTER":74.284,"MEAN_ANOMALY":285.8455,"EPHEMERIS_TYPE":0,"CLASSIFICATION_TYPE":"U","NORAD_CAT_ID":48217,"ELEMENT_SET_NO":999,"REV_AT_EPOCH":22471,"BSTAR":0.00021596836,"MEAN_MOTION_DOT":9.3e-7,"MEAN_MOTION_DDOT":0},{"OBJECT_NAME":"ONEWEB-0196","OBJECT_ID":"2021-031J","EPOCH":"2025-12-20T04:30:44.848512","MEAN_MOTION":13.14503939,"ECCENTRICITY":0.00016558,"INCLINATION":87.8992,"RA_OF_ASC_NODE":325.372,"ARG_OF_PERICENTER":81.0649,"MEAN_ANOMALY":279.0668,"EPHEMERIS_TYPE":0,"CLASSIFICATION_TYPE":"U","NORAD_CAT_ID":48218,"ELEMENT_SET_NO":999,"REV_AT_EPOCH":22471,"BSTAR":-0.00048799201,"MEAN_MOTION_DOT":-1.68e-6,"MEAN_MOTION_DDOT":0},{"OBJECT_NAME":"ONEWEB-0183","OBJECT_ID":"2021-031K","EPOCH":"2025-12-19T20:35:46.406400","MEAN_MOTION":13.14502777,"ECCENTRICITY":0.00017752,"INCLINATION":87.8988,"RA_OF_ASC_NODE":325.4412,"ARG_OF_PERICENTER":90.6055,"MEAN_ANOMALY":269.5278,"EPHEMERIS_TYPE":0,"CLASSIFICATION_TYPE":"U","NORAD_CAT_ID":48219,"ELEMENT_SET_NO":999,"REV_AT_EPOCH":22476,"BSTAR":-0.00010780164,"MEAN_MOTION_DOT":-2.7e-7,"MEAN_MOTION_DDOT":0},{"OBJECT_NAME":"ONEWEB-0185","OBJECT_ID":"2021-031L","EPOCH":"2025-12-19T23:03:03.358656","MEAN_MOTION":13.14504506,"ECCENTRICITY":0.0001505,"INCLINATION":87.9005,"RA_OF_ASC_NODE":325.3989,"ARG_OF_PERICENTER":93.9068,"MEAN_ANOMALY":266.2234,"EPHEMERIS_TYPE":0,"CLASSIFICATION_TYPE":"U","NORAD_CAT_ID":48220,"ELEMENT_SET_NO":999,"REV_AT_EPOCH":22470,"BSTAR":-0.00054623,"MEAN_MOTION_DOT":-1.9e-6,"MEAN_MOTION_DDOT":0},{"OBJECT_NAME":"ONEWEB-0187","OBJECT_ID":"2021-031M","EPOCH":"2025-12-20T04:03:07.947936","MEAN_MOTION":13.14501296,"ECCENTRICITY":0.00015299,"INCLINATION":87.8993,"RA_OF_ASC_NODE":325.3969,"ARG_OF_PERICENTER":84.8348,"MEAN_ANOMALY":275.2956,"EPHEMERIS_TYPE":0,"CLASSIFICATION_TYPE":"U","NORAD_CAT_ID":48221,"ELEMENT_SET_NO":999,"REV_AT_EPOCH":22474,"BSTAR":3.56345e-5,"MEAN_MOTION_DOT":2.6e-7,"MEAN_MOTION_DDOT":0},{"OBJECT_NAME":"ONEWEB-0192","OBJECT_ID":"2021-031N","EPOCH":"2025-12-20T05:09:34.253856","MEAN_MOTION":13.14504509,"ECCENTRICITY":0.00017748,"INCLINATION":87.899,"RA_OF_ASC_NODE":325.3778,"ARG_OF_PERICENTER":80.5604,"MEAN_ANOMALY":279.5726,"EPHEMERIS_TYPE":0,"CLASSIFICATION_TYPE":"U","NORAD_CAT_ID":48222,"ELEMENT_SET_NO":999,"REV_AT_EPOCH":22466,"BSTAR":0.00085055821,"MEAN_MOTION_DOT":3.28e-6,"MEAN_MOTION_DDOT":0},{"OBJECT_NAME":"ONEWEB-0219","OBJECT_ID":"2021-031P","EPOCH":"2025-12-19T23:11:02.444064","MEAN_MOTION":13.14504052,"ECCENTRICITY":0.0001561,"INCLINATION":87.8995,"RA_OF_ASC_NODE":325.4061,"ARG_OF_PERICENTER":88.5212,"MEAN_ANOMALY":271.6096,"EPHEMERIS_TYPE":0,"CLASSIFICATION_TYPE":"U","NORAD_CAT_ID":48223,"ELEMENT_SET_NO":999,"REV_AT_EPOCH":22483,"BSTAR":-0.00057804,"MEAN_MOTION_DOT":-2.02e-6,"MEAN_MOTION_DDOT":0},{"OBJECT_NAME":"ONEWEB-0202","OBJECT_ID":"2021-031Q","EPOCH":"2025-12-20T04:12:27.765504","MEAN_MOTION":13.14500186,"ECCENTRICITY":0.00015046,"INCLINATION":87.8991,"RA_OF_ASC_NODE":325.3759,"ARG_OF_PERICENTER":59.5159,"MEAN_ANOMALY":300.6119,"EPHEMERIS_TYPE":0,"CLASSIFICATION_TYPE":"U","NORAD_CAT_ID":48224,"ELEMENT_SET_NO":999,"REV_AT_EPOCH":22484,"BSTAR":-0.0006876161,"MEAN_MOTION_DOT":-2.42e-6,"MEAN_MOTION_DDOT":0},{"OBJECT_NAME":"ONEWEB-0204","OBJECT_ID":"2021-031R","EPOCH":"2025-12-20T05:01:33.742848","MEAN_MOTION":13.14505235,"ECCENTRICITY":0.00018419,"INCLINATION":87.8997,"RA_OF_ASC_NODE":325.3593,"ARG_OF_PERICENTER":92.0222,"MEAN_ANOMALY":268.1118,"EPHEMERIS_TYPE":0,"CLASSIFICATION_TYPE":"U","NORAD_CAT_ID":48225,"ELEMENT_SET_NO":999,"REV_AT_EPOCH":22474,"BSTAR":0.00011091512,"MEAN_MOTION_DOT":5.4e-7,"MEAN_MOTION_DDOT":0},{"OBJECT_NAME":"ONEWEB-0205","OBJECT_ID":"2021-031S","EPOCH":"2025-12-20T04:26:10.135392","MEAN_MOTION":13.14504566,"ECCENTRICITY":0.00016023,"INCLINATION":87.8998,"RA_OF_ASC_NODE":325.3575,"ARG_OF_PERICENTER":85.7386,"MEAN_ANOMALY":274.3927,"EPHEMERIS_TYPE":0,"CLASSIFICATION_TYPE":"U","NORAD_CAT_ID":48226,"ELEMENT_SET_NO":999,"REV_AT_EPOCH":22475,"BSTAR":-0.00065758807,"MEAN_MOTION_DOT":-2.31e-6,"MEAN_MOTION_DDOT":0},{"OBJECT_NAME":"ONEWEB-0206","OBJECT_ID":"2021-031T","EPOCH":"2025-12-20T03:47:22.540128","MEAN_MOTION":13.14502824,"ECCENTRICITY":0.00020407,"INCLINATION":87.9008,"RA_OF_ASC_NODE":325.3541,"ARG_OF_PERICENTER":80.2062,"MEAN_ANOMALY":279.9298,"EPHEMERIS_TYPE":0,"CLASSIFICATION_TYPE":"U","NORAD_CAT_ID":48227,"ELEMENT_SET_NO":999,"REV_AT_EPOCH":22470,"BSTAR":0.00022484485,"MEAN_MOTION_DOT":9.6e-7,"MEAN_MOTION_DDOT":0},{"OBJECT_NAME":"ONEWEB-0182","OBJECT_ID":"2021-031U","EPOCH":"2025-12-19T22:11:40.909056","MEAN_MOTION":13.14503691,"ECCENTRICITY":0.0001805,"INCLINATION":87.899,"RA_OF_ASC_NODE":325.4276,"ARG_OF_PERICENTER":91.6745,"MEAN_ANOMALY":268.4592,"EPHEMERIS_TYPE":0,"CLASSIFICATION_TYPE":"U","NORAD_CAT_ID":48228,"ELEMENT_SET_NO":999,"REV_AT_EPOCH":22488,"BSTAR":0.00038286,"MEAN_MOTION_DOT":1.55e-6,"MEAN_MOTION_DDOT":0},{"OBJECT_NAME":"ONEWEB-0186","OBJECT_ID":"2021-031V","EPOCH":"2025-12-19T15:09:13.284000","MEAN_MOTION":13.14504019,"ECCENTRICITY":0.0001659,"INCLINATION":87.9003,"RA_OF_ASC_NODE":325.464,"ARG_OF_PERICENTER":83.7731,"MEAN_ANOMALY":276.3588,"EPHEMERIS_TYPE":0,"CLASSIFICATION_TYPE":"U","NORAD_CAT_ID":48229,"ELEMENT_SET_NO":999,"REV_AT_EPOCH":22479,"BSTAR":-5.6567e-7,"MEAN_MOTION_DOT":1.3e-7,"MEAN_MOTION_DDOT":0},{"OBJECT_NAME":"ONEWEB-0181","OBJECT_ID":"2021-031W","EPOCH":"2025-12-19T21:55:41.353248","MEAN_MOTION":13.14504302,"ECCENTRICITY":0.0001632,"INCLINATION":87.8988,"RA_OF_ASC_NODE":325.4602,"ARG_OF_PERICENTER":84.5586,"MEAN_ANOMALY":275.573,"EPHEMERIS_TYPE":0,"CLASSIFICATION_TYPE":"U","NORAD_CAT_ID":48230,"ELEMENT_SET_NO":999,"REV_AT_EPOCH":22468,"BSTAR":0.00070429,"MEAN_MOTION_DOT":2.74e-6,"MEAN_MOTION_DDOT":0},{"OBJECT_NAME":"ONEWEB-0188","OBJECT_ID":"2021-031X","EPOCH":"2025-12-20T04:19:18.634656","MEAN_MOTION":13.1450253,"ECCENTRICITY":0.00018049,"INCLINATION":87.8989,"RA_OF_ASC_NODE":325.4045,"ARG_OF_PERICENTER":85.5217,"MEAN_ANOMALY":274.6119,"EPHEMERIS_TYPE":0,"CLASSIFICATION_TYPE":"U","NORAD_CAT_ID":48231,"ELEMENT_SET_NO":999,"REV_AT_EPOCH":22462,"BSTAR":-0.0013409354,"MEAN_MOTION_DOT":-4.84e-6,"MEAN_MOTION_DDOT":0}]
